0 FENGYUN 1C DEB
1 38132U 99025EQD 13271.20303151  .00004446  00000-0  25428-2 0   599
2 38132 099.2426 262.2862 0227758 055.8909 306.4451 13.97835355207322
0 FENGYUN 1C DEB
1 38132U 99025EQD 13273.20715861  .00004560  00000-0  26142-2 0   609
2 38132 099.2368 264.2864 0226221 050.1094 312.0189 13.97855948207600
0 FENGYUN 1C DEB
1 38132U 99025EQD 13274.20920810  .00004561  00000-0  26142-2 0   614
2 38132 099.2368 265.2950 0226204 047.3700 314.6291 13.97865155207748
0 FENGYUN 1C DEB
1 38132U 99025EQD 13275.21125950  .00004610  00000-0  26447-2 0   622
2 38132 099.2358 266.3002 0225632 044.5167 317.4125 13.97875601207886
0 FENGYUN 1C DEB
1 38132U 99025EQD 13276.21329776  .00004659  00000-0  26757-2 0   633
2 38132 099.2323 267.2964 0224847 041.6365 320.1944 13.97886218208023
0 FENGYUN 1C DEB
1 38132U 99025EQD 13276.78588466  .00004659  00000-0  26696-2 0   652
2 38132 099.2391 267.8948 0225967 041.1956 320.6008 13.97891245208102
0 FENGYUN 1C DEB
1 38132U 99025EQD 13276.78588749  .00005775  00000-0  32872-2 0   648
2 38132 099.2308 267.8793 0224983 040.5009 321.3129 13.97897497208104
0 FENGYUN 1C DEB
1 38132U 99025EQD 13277.21532759  .00004794  00000-0  27539-2 0   663
2 38132 099.2368 268.3146 0224464 039.5659 322.2076 13.97897918208166
0 FENGYUN 1C DEB
1 38132U 99025EQD 13281.79592283  .00005117  00000-0  29310-2 0   679
2 38132 099.2367 272.9305 0225223 026.4371 334.8087 13.97949637208801
0 FENGYUN 1C DEB
1 38132U 99025EQD 13283.79988618  .00005183  00000-0  29676-2 0   681
2 38132 099.2382 274.9516 0225094 021.0985 339.9480 13.97971625209088
